[
  {
    "OBJECT_ID": "1961-015AE",
    "OBJECT_NAME": "THOR ABLESTAR DEB",
    "NORAD_CAT_ID": "144",
    "OBJECT_TYPE": "DEBRIS",
    "PERIOD": "103.611",
    "INCLINATION": "66.4983",
    "APOGEE": "955.998",
    "PERIGEE": "902.585",
    "ECCENTRICITY": "0.0036547",
    "MEAN_MOTION": "13.89812009",
    "TLE_LINE1": "1 00144U 61015AE  16239.45346696  .00000031  00000-0  88660-4 0  9992",
    "TLE_LINE2": "2 00144  66.4983 233.6103 0036547 133.5282 226.8840 13.89812009787210"
  },
  {
    "OBJECT_ID": "1961-015AF",
    "OBJECT_NAME": "THOR ABLESTAR DEB",
    "NORAD_CAT_ID": "145",
    "OBJECT_TYPE": "DEBRIS",
    "PERIOD": "102.780",
    "INCLINATION": "66.9248",
    "APOGEE": "932.240",
    "PERIGEE": "848.138",
    "ECCENTRICITY": "0.0057855",
    "MEAN_MOTION": "14.01042469",
    "TLE_LINE1": "1 00145U 61015AF  16238.77003028  .00000027  00000-0  68914-4 0  9991",
    "TLE_LINE2": "2 00145  66.9248 244.7369 0057855  48.9989 311.6078 14.01042469815101"
  },
  {
    "OBJECT_ID": "1961-015AH",
    "OBJECT_NAME": "THOR ABLESTAR DEB",
    "NORAD_CAT_ID": "147",
    "OBJECT_TYPE": "DEBRIS",
    "PERIOD": "101.517",
    "INCLINATION": "66.6176",
    "APOGEE": "865.862",
    "PERIGEE": "795.194",
    "ECCENTRICITY": "0.0049016",
    "MEAN_MOTION": "14.18471425",
    "TLE_LINE1": "1 00147U 61015AH  16239.48445978  .00000330  00000-0  19746-3 0  9991",
    "TLE_LINE2": "2 00147  66.6176 249.5445 0049016  42.6142 317.8735 14.18471425826375"
  },
  {
    "OBJECT_ID": "1961-015AJ",
    "OBJECT_NAME": "THOR ABLESTAR DEB",
    "NORAD_CAT_ID": "148",
    "OBJECT_TYPE": "DEBRIS",
    "PERIOD": "102.490",
    "INCLINATION": "65.7758",
    "APOGEE": "987.906",
    "PERIGEE": "765.092",
    "ECCENTRICITY": "0.0153567",
    "MEAN_MOTION": "14.05010193",
    "TLE_LINE1": "1   148U 61015AJ  16238.88919677 +.00000076 +00000-0 +91478-4 0  9997",
    "TLE_LINE2": "2   148 065.7758 113.0069 0153567 335.7513 023.6388 14.05010193255104"
  },
  {
    "OBJECT_ID": "1961-015AL",
    "OBJECT_NAME": "THOR ABLESTAR DEB",
    "NORAD_CAT_ID": "150",
    "OBJECT_TYPE": "DEBRIS",
    "PERIOD": "104.287",
    "INCLINATION": "66.2471",
    "APOGEE": "1008.849",
    "PERIGEE": "913.303",
    "ECCENTRICITY": "0.0065093",
    "MEAN_MOTION": "13.80793307",
    "TLE_LINE1": "1   150U 61015AL  16238.88406952 +.00000128 +00000-0 +19349-3 0  9991",
    "TLE_LINE2": "2   150 066.2471 070.8547 0065093 179.8228 180.2876 13.80793307613569"
  },
  {
    "OBJECT_ID": "1961-015AN",
    "OBJECT_NAME": "THOR ABLESTAR DEB",
    "NORAD_CAT_ID": "152",
    "OBJECT_TYPE": "DEBRIS",
    "PERIOD": "102.204",
    "INCLINATION": "66.594",
    "APOGEE": "969.916",
    "PERIGEE": "756.106",
    "ECCENTRICITY": "0.0147636",
    "MEAN_MOTION": "14.08937635",
    "TLE_LINE1": "1   152U 61015AN  16238.87855157 -.00000137 +00000-0 -29058-4 0  9998",
    "TLE_LINE2": "2   152 066.5940 064.6850 0147636 108.8436 252.8727 14.08937635820645"
  },
  {
    "OBJECT_ID": "1961-015AQ",
    "OBJECT_NAME": "THOR ABLESTAR DEB",
    "NORAD_CAT_ID": "154",
    "OBJECT_TYPE": "DEBRIS",
    "PERIOD": "102.549",
    "INCLINATION": "66.659",
    "APOGEE": "944.531",
    "PERIGEE": "814.037",
    "ECCENTRICITY": "0.0089904",
    "MEAN_MOTION": "14.04201497",
    "TLE_LINE1": "1 00154U 61015AQ  16239.18144727  .00000048  00000-0  78099-4 0  9997",
    "TLE_LINE2": "2 00154  66.6590 158.5491 0089904 308.3092  50.9932 14.04201497813903"
  },
  {
    "OBJECT_ID": "1961-015AR",
    "OBJECT_NAME": "THOR ABLESTAR DEB",
    "NORAD_CAT_ID": "155",
    "OBJECT_TYPE": "DEBRIS",
    "PERIOD": "100.124",
    "INCLINATION": "66.8811",
    "APOGEE": "797.568",
    "PERIGEE": "731.313",
    "ECCENTRICITY": "0.004638",
    "MEAN_MOTION": "14.38203869",
    "TLE_LINE1": "1   155U 61015AR  16238.80027465 +.00000336 +00000-0 +13693-3 0  9993",
    "TLE_LINE2": "2   155 066.8811 027.6828 0046380 162.5474 197.7237 14.38203869844686"
  },
  {
    "OBJECT_ID": "1961-015AU",
    "OBJECT_NAME": "THOR ABLESTAR DEB",
    "NORAD_CAT_ID": "158",
    "OBJECT_TYPE": "DEBRIS",
    "PERIOD": "113.829",
    "INCLINATION": "67.0762",
    "APOGEE": "1881.668",
    "PERIGEE": "922.662",
    "ECCENTRICITY": "0.0616304",
    "MEAN_MOTION": "12.6505144",
    "TLE_LINE1": "1 00158U 61015AU  16238.72987082  .00000187  00000-0  61880-3 0  9992",
    "TLE_LINE2": "2 00158  67.0762   2.9412 0616304 257.0311  96.1229 12.65051440552066"
  },
  {
    "OBJECT_ID": "1961-015AV",
    "OBJECT_NAME": "THOR ABLESTAR DEB",
    "NORAD_CAT_ID": "159",
    "OBJECT_TYPE": "DEBRIS",
    "PERIOD": "110.613",
    "INCLINATION": "65.5245",
    "APOGEE": "1530.516",
    "PERIGEE": "979.308",
    "ECCENTRICITY": "0.0361067",
    "MEAN_MOTION": "13.01834641",
    "TLE_LINE1": "1   159U 61015AV  16238.92687439 -.00000071 +00000-0 -89173-5 0  9999",
    "TLE_LINE2": "2   159 065.5245 225.5645 0361067 082.1686 282.0158 13.01834641614386"
  },
  {
    "OBJECT_ID": "1961-017A",
    "OBJECT_NAME": "TIROS 3",
    "NORAD_CAT_ID": "162",
    "OBJECT_TYPE": "PAYLOAD",
    "PERIOD": "99.727",
    "INCLINATION": "47.8997",
    "APOGEE": "777.607",
    "PERIGEE": "713.426",
    "ECCENTRICITY": "0.0045048",
    "MEAN_MOTION": "14.43938553",
    "TLE_LINE1": "1   162U 61017A   16238.89240669 -.00000127 +00000-0 +10651-4 0  9996",
    "TLE_LINE2": "2   162 047.8997 075.2169 0045048 340.8325 019.0871 14.43938553873965"
  },
  {
    "OBJECT_ID": "1961-018A",
    "OBJECT_NAME": "MIDAS 3",
    "NORAD_CAT_ID": "163",
    "OBJECT_TYPE": "PAYLOAD",
    "PERIOD": "161.465",
    "INCLINATION": "91.1809",
    "APOGEE": "3542.437",
    "PERIGEE": "3345.877",
    "ECCENTRICITY": "0.0100058",
    "MEAN_MOTION": "8.91832887",
    "TLE_LINE1": "1   163U 61018A   16238.81955234 -.00000003 +00000-0 -15128-2 0  9997",
    "TLE_LINE2": "2   163 091.1809 045.6085 0100058 126.5166 234.4971 08.91832887794621"
  },
  {
    "OBJECT_ID": "1961-017D",
    "OBJECT_NAME": "DELTA 1 DEB (YO)",
    "NORAD_CAT_ID": "167",
    "OBJECT_TYPE": "DEBRIS",
    "PERIOD": "101.223",
    "INCLINATION": "47.8462",
    "APOGEE": "883.362",
    "PERIGEE": "749.840",
    "ECCENTRICITY": "0.0092791",
    "MEAN_MOTION": "14.22592238",
    "TLE_LINE1": "1 00167U 61017D   16239.18260636 -.00000151  00000-0  15365-6 0  9996",
    "TLE_LINE2": "2 00167  47.8462 297.6180 0092791 218.0485 141.3819 14.22592238855032"
  },
  {
    "OBJECT_ID": "1961-015AY",
    "OBJECT_NAME": "THOR ABLESTAR DEB",
    "NORAD_CAT_ID": "172",
    "OBJECT_TYPE": "DEBRIS",
    "PERIOD": "106.108",
    "INCLINATION": "67.0678",
    "APOGEE": "1142.194",
    "PERIGEE": "950.310",
    "ECCENTRICITY": "0.0129225",
    "MEAN_MOTION": "13.57099887",
    "TLE_LINE1": "1   172U 61015AY  16238.93894725 +.00000101 +00000-0 +22421-3 0  9996",
    "TLE_LINE2": "2   172 067.0678 070.1930 0129225 086.8715 274.7125 13.57099887718766"
  },
  {
    "OBJECT_ID": "1961-015BB",
    "OBJECT_NAME": "THOR ABLESTAR DEB",
    "NORAD_CAT_ID": "177",
    "OBJECT_TYPE": "DEBRIS",
    "PERIOD": "101.889",
    "INCLINATION": "66.6635",
    "APOGEE": "928.546",
    "PERIGEE": "767.672",
    "ECCENTRICITY": "0.0111312",
    "MEAN_MOTION": "14.13298193",
    "TLE_LINE1": "1   177U 61015BB  16238.79949771 -.00000226 +00000-0 -72316-4 0  9996",
    "TLE_LINE2": "2   177 066.6635 343.1002 0111312 070.9634 290.3474 14.13298193834847"
  },
  {
    "OBJECT_ID": "1961-015BC",
    "OBJECT_NAME": "THOR ABLESTAR DEB",
    "NORAD_CAT_ID": "178",
    "OBJECT_TYPE": "DEBRIS",
    "PERIOD": "103.429",
    "INCLINATION": "66.8653",
    "APOGEE": "976.656",
    "PERIGEE": "864.833",
    "ECCENTRICITY": "0.0076603",
    "MEAN_MOTION": "13.92253756",
    "TLE_LINE1": "1   178U 61015BC  16238.93195457 -.00000049 +00000-0 +20573-4 0  9997",
    "TLE_LINE2": "2   178 066.8653 108.9099 0076603 024.7597 335.7128 13.92253756798493"
  },
  {
    "OBJECT_ID": "1961-018C",
    "OBJECT_NAME": "MIDAS 3 DEB",
    "NORAD_CAT_ID": "188",
    "OBJECT_TYPE": "DEBRIS",
    "PERIOD": "161.110",
    "INCLINATION": "91.1807",
    "APOGEE": "3542.934",
    "PERIGEE": "3316.566",
    "ECCENTRICITY": "0.0115401",
    "MEAN_MOTION": "8.93798681",
    "TLE_LINE1": "1 00188U 61018C   16239.42614096  .00000002  00000-0  45898-3 0  9995",
    "TLE_LINE2": "2 00188  91.1807  48.1687 0115401   1.7412 358.3845  8.93798681798498"
  },
  {
    "OBJECT_ID": "1961-028A",
    "OBJECT_NAME": "MIDAS 4",
    "NORAD_CAT_ID": "192",
    "OBJECT_TYPE": "PAYLOAD",
    "PERIOD": "165.944",
    "INCLINATION": "95.8384",
    "APOGEE": "3763.573",
    "PERIGEE": "3486.412",
    "ECCENTRICITY": "0.0138537",
    "MEAN_MOTION": "8.67758788",
    "TLE_LINE1": "1   192U 61028A   16238.85806678 +.00000019 +00000-0 +10408-1 0  9991",
    "TLE_LINE2": "2   192 095.8384 190.0548 0138537 233.2306 125.5761 08.67758788737417"
  },
  {
    "OBJECT_ID": "1961-028C",
    "OBJECT_NAME": "MIDAS 4 DEB",
    "NORAD_CAT_ID": "194",
    "OBJECT_TYPE": "DEBRIS",
    "PERIOD": "165.510",
    "INCLINATION": "95.8275",
    "APOGEE": "3974.829",
    "PERIGEE": "3240.241",
    "ECCENTRICITY": "0.0367821",
    "MEAN_MOTION": "8.70035416",
    "TLE_LINE1": "1 00194U 61028C   16238.83313043  .00000036  00000-0  16099-1 0  9991",
    "TLE_LINE2": "2 00194  95.8275 209.7635 0367821 115.7100 248.2204  8.70035416741981"
  },
  {
    "OBJECT_ID": "1961-028D",
    "OBJECT_NAME": "MIDAS 4 DEB",
    "NORAD_CAT_ID": "195",
    "OBJECT_TYPE": "DEBRIS",
    "PERIOD": "166.355",
    "INCLINATION": "95.8496",
    "APOGEE": "3797.631",
    "PERIGEE": "3485.387",
    "ECCENTRICITY": "0.0155816",
    "MEAN_MOTION": "8.65614089",
    "TLE_LINE1": "1   195U 61028D   16238.74101705 -.00000038 +00000-0 -15949-1 0  9999",
    "TLE_LINE2": "2   195 095.8496 174.1033 0155816 309.1697 049.5401 08.65614089733056"
  }
]
